#aV2010  7 31  0  0   .00000000      96 DD+AD WGS84 FIT  NGA
## 1594 518400.00000000   900.00000000 55408  .0000000000000
+   31     1  2  3  4  5  6  7  8  9 10 11 12 13 14 15 16 17
+         18 19 20 21 22 23 24 26 27 28 29 30 31 32  0  0  0
+          0  0  0  0  0  0  0  0  0  0  0  0  0  0  0  0  0
+          0  0  0  0  0  0  0  0  0  0  0  0  0  0  0  0  0
+          0  0  0  0  0  0  0  0  0  0  0  0  0  0  0  0  0
++         0  0  0  0  0  0  0  0  0  0  0  0  0  0  0  0  0
++         0  0  0  0  0  0  0  0  0  0  0  0  0  0  0  0  0
++         0  0  0  0  0  0  0  0  0  0  0  0  0  0  0  0  0
++         0  0  0  0  0  0  0  0  0  0  0  0  0  0  0  0  0
++         0  0  0  0  0  0  0  0  0  0  0  0  0  0  0  0  0
%c cc cc ccc ccc cccc cccc cccc cccc ccccc ccccc ccccc ccccc
%c cc cc ccc ccc cccc cccc cccc cccc ccccc ccccc ccccc ccccc
%f  0.0000000  0.000000000  0.00000000000  0.000000000000000
%f  0.0000000  0.000000000  0.00000000000  0.000000000000000
%i    0    0    0    0      0      0      0      0         0
%i    0    0    0    0      0      0      0      0         0
/*      NGA, ST. LOUIS,MO.                                  
/*   EPHEMERIS COMPUTED FROM  3 DAYS OF DATA                
/* CCCCCCCCCCCCCCCCCCCCCCCCCCCCCCCCCCCCCCCCCCCCCCCCCCCCCCCCC
/* CCCCCCCCCCCCCCCCCCCCCCCCCCCCCCCCCCCCCCCCCCCCCCCCCCCCCCCCC
*  2010  7 31 21 15   .00000000                                                 
P  1  23300.770714   5458.235225 -11772.556888   -147.088741                    
V  1 -14366.142497   3836.870522 -26794.678095      -.040042                    
P  2 -16542.867002    367.637894 -20698.498130    277.280195                    
V  2   9118.475441 -24842.314450  -8194.240572       .029945                    
P  3  20444.312278   3755.887596  16342.778418    589.032177                    
V  3  13056.882211  17158.901403 -19479.655847       .051079                    
P  4 -10846.105714 -12912.321919 -20621.947844    136.749496                    
V  4  11434.636062 -23326.752990   9023.231226       .081560                    
P  5 -26480.961407   2444.483341   -918.415612    -19.293571                    
V  5    810.656918  -2966.678147 -31593.247023      -.037272                    
P  6  20837.777535   8865.848324  14182.487078    551.638532                    
V  6   9274.406468  15314.912950 -23324.874028      -.145619                    
P  7   4795.118468 -24719.540170   8136.883679     -1.881210                    
V  7   6409.328084  -8529.877576 -29824.913336      -.000367                    
P  8  -3424.006922 -18868.735402  18113.094589      6.285824                    
V  8  11938.931337 -19887.664986 -18970.833742       .000602                    
P  9 -14892.781991  19378.633446   9815.858154     21.609550                    
V  9   3004.885607 -13074.883123  28801.160530       .022461                    
P 10 -22987.794032  -6561.926268 -12120.322296    -48.464726                    
V 10  14725.776753  -3612.603866 -26032.278426      -.010002                    
P 11  10351.607084 -22908.532967   7724.533351    -79.397106                    
V 11   3197.410390  11105.711799  28046.854322      -.026165                    
P 12 -18636.176291  11908.932040 -14554.055270    -87.822004                    
V 12 -18691.195519    -54.168239  23974.691839       .039333                    
P 13  -1809.712820 -21619.250506 -15429.896772    300.675358                    
V 13  11436.179783  15600.069573 -23450.756476      -.007050                    
P 14  15933.138532  21214.417582  -2238.505893     73.711697                    
V 14     84.511902   3548.803024  32042.998229       .039979                    
P 15 -14654.656118   5851.819306  21394.844403   -230.902872                    
V 15 -16175.506834 -21795.078179  -5001.963715       .059079                    
P 16  26038.150645   1661.618087  -5673.931316    -94.936641                    
V 16  -6976.579389   2736.591513 -30757.301978      -.035597                    
P 17 -14925.171774 -22103.349041    728.590484    164.523064                    
V 17   2613.872139   -870.214649  31595.285861       .017413                    
P 18    421.891322  15888.990717  21552.754594     84.232083                    
V 18 -26726.866907   2148.304488  -1459.748990       .023341                    
P 19  14530.799741  -5402.727711  21614.762500    -54.027390                    
V 19  14337.053906  23315.559530  -3499.230981      -.029814                    
P 20  17097.279331 -13732.412523 -15080.054138     52.693686                    
V 20  19177.350394   -241.123714  22204.010259      -.004211                    
P 21  -1478.137876  23816.590226  11322.341483    -77.839992                    
V 21  -9026.624289  11453.400329 -26707.738217      -.026300                    
P 22  13619.072025  12912.983054  19000.611694    166.322718                    
V 22 -23602.441336   3680.067271  14448.517412      -.007998                    
P 23   6198.299931 -15552.392770 -20555.752539    360.552406                    
V 23  16200.390850  20523.975573 -10977.668853      -.016551                    
P 24  14372.837946   5920.266288  21622.986247    309.071400                    
V 24 -11938.812321  24547.764927   1463.907243       .031411                    
P 26 -17503.714168  -4052.570136  19142.243003    -90.675500                    
V 26 -12939.306067 -21766.555635 -15588.421690      -.064255                    
P 27 -16430.760682  14947.524131  15095.398614    175.442257                    
V 27   4834.243364 -17435.370920  23779.349484       .035143                    
P 28 -10730.895260 -13434.087212  20800.206423     -8.799856                    
V 28  25100.808359  -2600.269058  11259.146266       .012353                    
P 29   1521.630447  21386.658447 -15615.572254    138.521039                    
V 29 -12964.586271 -15317.120828 -22074.396975       .029440                    
P 30  -6634.997100  15808.378775 -20681.862978    265.420232                    
V 30 -25210.989820   3044.923269  10669.104687       .032635                    
P 31  11403.551426  10135.650683 -21517.144629    -20.587260                    
V 31 -11638.613669  25230.612384   5833.245008       .027234                    
P 32  22880.322201  -7823.304373 -10238.882652    -50.774712                    
V 32  13692.136088   2535.102683  28099.182404      -.087476                    
EOF
